{
  "type": "FeatureCollection",
  "features": [
    {
      "type": "Feature",
      "properties": {
        "norad_id": 38833,
        "name": "GPS BIIF-3  (PRN 24)",
        "group": "gps-ops",
        "lat": -49.32973991462564,
        "lon": 30.684980007390838,
        "alt_km": 20650.94251803783,
        "timestamp": "2025-12-09T16:56:36.833606+00:00",
        "meta_object_name": "GPS BIIF-3  (PRN 24)",
        "meta_object_id": "2012-053A",
        "meta_epoch": "2025-12-09T08:40:03.792864",
        "meta_mean_motion": 2.00564926,
        "meta_eccentricity": 0.0175734,
        "meta_inclination": 53.5568,
        "meta_ra_of_asc_node": 151.3769,
        "meta_arg_of_pericenter": 63.947,
        "meta_mean_anomaly": 297.8481,
        "meta_ephemeris_type": 0,
        "meta_classification_type": "U",
        "meta_norad_cat_id": 38833,
        "meta_element_set_no": 999,
        "meta_rev_at_epoch": 9563,
        "meta_bstar": 0,
        "meta_mean_motion_dot": 6.3e-07,
        "meta_mean_motion_ddot": 0,
        "tle_line1": "1 38833U 12053A   25343.36115501  .00000063  00000+0  00000+0 0  9992",
        "tle_line2": "2 38833  53.5568 151.3769 0175734  63.9470 297.8481  2.00564926 95633"
      },
      "geometry": {
        "type": "Point",
        "coordinates": [
          30.684980007390838,
          -49.32973991462564
        ]
      }
    },
    {
      "type": "Feature",
      "properties": {
        "norad_id": 39166,
        "name": "GPS BIIF-4  (PRN 27)",
        "group": "gps-ops",
        "lat": -10.581537006061838,
        "lon": -90.92973197912558,
        "alt_km": 20005.79429810757,
        "timestamp": "2025-12-09T16:56:36.833619+00:00",
        "meta_object_name": "GPS BIIF-4  (PRN 27)",
        "meta_object_id": "2013-023A",
        "meta_epoch": "2025-12-09T05:24:11.843712",
        "meta_mean_motion": 2.00565099,
        "meta_eccentricity": 0.0137683,
        "meta_inclination": 54.6551,
        "meta_ra_of_asc_node": 276.7112,
        "meta_arg_of_pericenter": 48.5762,
        "meta_mean_anomaly": 312.6137,
        "meta_ephemeris_type": 0,
        "meta_classification_type": "U",
        "meta_norad_cat_id": 39166,
        "meta_element_set_no": 999,
        "meta_rev_at_epoch": 9207,
        "meta_bstar": 0,
        "meta_mean_motion_dot": -4.9e-07,
        "meta_mean_motion_ddot": 0,
        "tle_line1": "1 39166U 13023A   25343.22513708 -.00000049  00000+0  00000+0 0  9991",
        "tle_line2": "2 39166  54.6551 276.7112 0137683  48.5762 312.6137  2.00565099 92076"
      },
      "geometry": {
        "type": "Point",
        "coordinates": [
          -90.92973197912558,
          -10.581537006061838
        ]
      }
    },
    {
      "type": "Feature",
      "properties": {
        "norad_id": 39533,
        "name": "GPS BIIF-5  (PRN 30)",
        "group": "gps-ops",
        "lat": -6.826515909885169,
        "lon": 151.97907772094226,
        "alt_km": 20301.896792679952,
        "timestamp": "2025-12-09T16:56:36.833636+00:00",
        "meta_object_name": "GPS BIIF-5  (PRN 30)",
        "meta_object_id": "2014-008A",
        "meta_epoch": "2025-12-08T17:17:53.714976",
        "meta_mean_motion": 2.00574163,
        "meta_eccentricity": 0.0079112,
        "meta_inclination": 53.6309,
        "meta_ra_of_asc_node": 157.0886,
        "meta_arg_of_pericenter": 226.4438,
        "meta_mean_anomaly": 132.9028,
        "meta_ephemeris_type": 0,
        "meta_classification_type": "U",
        "meta_norad_cat_id": 39533,
        "meta_element_set_no": 999,
        "meta_rev_at_epoch": 8586,
        "meta_bstar": 0,
        "meta_mean_motion_dot": 5.9e-07,
        "meta_mean_motion_ddot": 0,
        "tle_line1": "1 39533U 14008A   25342.72076059  .00000059  00000+0  00000+0 0  9990",
        "tle_line2": "2 39533  53.6309 157.0886 0079112 226.4438 132.9028  2.00574163 85865"
      },
      "geometry": {
        "type": "Point",
        "coordinates": [
          151.97907772094226,
          -6.826515909885169
        ]
      }
    },
    {
      "type": "Feature",
      "properties": {
        "norad_id": 39741,
        "name": "GPS BIIF-6  (PRN 06)",
        "group": "gps-ops",
        "lat": 27.243245406986222,
        "lon": 139.01814281506896,
        "alt_km": 20281.85451595902,
        "timestamp": "2025-12-09T16:56:36.833648+00:00",
        "meta_object_name": "GPS BIIF-6  (PRN 06)",
        "meta_object_id": "2014-026A",
        "meta_epoch": "2025-12-09T00:05:22.717824",
        "meta_mean_motion": 2.00561537,
        "meta_eccentricity": 0.00390851,
        "meta_inclination": 56.5851,
        "meta_ra_of_asc_node": 338.9217,
        "meta_arg_of_pericenter": 318.4622,
        "meta_mean_anomaly": 41.2516,
        "meta_ephemeris_type": 0,
        "meta_classification_type": "U",
        "meta_norad_cat_id": 39741,
        "meta_element_set_no": 999,
        "meta_rev_at_epoch": 8472,
        "meta_bstar": 0,
        "meta_mean_motion_dot": -8.4e-07,
        "meta_mean_motion_ddot": 0,
        "tle_line1": "1 39741U 14026A   25343.00373516 -.00000084  00000+0  00000+0 0  9990",
        "tle_line2": "2 39741  56.5851 338.9217 0039085 318.4622  41.2516  2.00561537 84729"
      },
      "geometry": {
        "type": "Point",
        "coordinates": [
          139.01814281506896,
          27.243245406986222
        ]
      }
    },
    {
      "type": "Feature",
      "properties": {
        "norad_id": 40105,
        "name": "GPS BIIF-7  (PRN 09)",
        "group": "gps-ops",
        "lat": 54.76495456736797,
        "lon": 175.27525277921322,
        "alt_km": 20104.610447173964,
        "timestamp": "2025-12-09T16:56:36.833659+00:00",
        "meta_object_name": "GPS BIIF-7  (PRN 09)",
        "meta_object_id": "2014-045A",
        "meta_epoch": "2025-12-08T14:13:50.768544",
        "meta_mean_motion": 2.00572212,
        "meta_eccentricity": 0.00327724,
        "meta_inclination": 55.2267,
        "meta_ra_of_asc_node": 96.0644,
        "meta_arg_of_pericenter": 119.7768,
        "meta_mean_anomaly": 240.5333,
        "meta_ephemeris_type": 0,
        "meta_classification_type": "U",
        "meta_norad_cat_id": 40105,
        "meta_element_set_no": 999,
        "meta_rev_at_epoch": 8225,
        "meta_bstar": 0,
        "meta_mean_motion_dot": 0,
        "meta_mean_motion_ddot": 0,
        "tle_line1": "1 40105U 14045A   25342.59294871  .00000000  00000+0  00000+0 0  9993",
        "tle_line2": "2 40105  55.2267  96.0644 0032772 119.7768 240.5333  2.00572212 82256"
      },
      "geometry": {
        "type": "Point",
        "coordinates": [
          175.27525277921322,
          54.76495456736797
        ]
      }
    },
    {
      "type": "Feature",
      "properties": {
        "norad_id": 40294,
        "name": "GPS BIIF-8  (PRN 03)",
        "group": "gps-ops",
        "lat": 5.539126134515394,
        "lon": -145.35030606147325,
        "alt_km": 20220.36565549794,
        "timestamp": "2025-12-09T16:56:36.833681+00:00",
        "meta_object_name": "GPS BIIF-8  (PRN 03)",
        "meta_object_id": "2014-068A",
        "meta_epoch": "2025-12-09T11:13:35.594976",
        "meta_mean_motion": 2.00564545,
        "meta_eccentricity": 0.0060787,
        "meta_inclination": 56.8554,
        "meta_ra_of_asc_node": 38.2726,
        "meta_arg_of_pericenter": 69.25,
        "meta_mean_anomaly": 291.455,
        "meta_ephemeris_type": 0,
        "meta_classification_type": "U",
        "meta_norad_cat_id": 40294,
        "meta_element_set_no": 999,
        "meta_rev_at_epoch": 8140,
        "meta_bstar": 0,
        "meta_mean_motion_dot": -8.3e-07,
        "meta_mean_motion_ddot": 0,
        "tle_line1": "1 40294U 14068A   25343.46777309 -.00000083  00000+0  00000+0 0  9998",
        "tle_line2": "2 40294  56.8554  38.2726 0060787  69.2500 291.4550  2.00564545 81402"
      },
      "geometry": {
        "type": "Point",
        "coordinates": [
          -145.35030606147325,
          5.539126134515394
        ]
      }
    },
    {
      "type": "Feature",
      "properties": {
        "norad_id": 40534,
        "name": "GPS BIIF-9  (PRN 26)",
        "group": "gps-ops",
        "lat": 51.97957723578142,
        "lon": -74.81283044526782,
        "alt_km": 19961.20699750241,
        "timestamp": "2025-12-09T16:56:36.833692+00:00",
        "meta_object_name": "GPS BIIF-9  (PRN 26)",
        "meta_object_id": "2015-013A",
        "meta_epoch": "2025-12-09T02:22:50.145600",
        "meta_mean_motion": 2.00562736,
        "meta_eccentricity": 0.0106899,
        "meta_inclination": 53.1983,
        "meta_ra_of_asc_node": 212.041,
        "meta_arg_of_pericenter": 38.3936,
        "meta_mean_anomaly": 322.4441,
        "meta_ephemeris_type": 0,
        "meta_classification_type": "U",
        "meta_norad_cat_id": 40534,
        "meta_element_set_no": 999,
        "meta_rev_at_epoch": 7801,
        "meta_bstar": 0,
        "meta_mean_motion_dot": 1.8e-07,
        "meta_mean_motion_ddot": 0,
        "tle_line1": "1 40534U 15013A   25343.09919150  .00000018  00000+0  00000+0 0  9994",
        "tle_line2": "2 40534  53.1983 212.0410 0106899  38.3936 322.4441  2.00562736 78019"
      },
      "geometry": {
        "type": "Point",
        "coordinates": [
          -74.81283044526782,
          51.97957723578142
        ]
      }
    }
  ]
}